{"type": "FeatureCollection", "features": [ {"type": "Feature", "properties": {"norad_id": 33825, "name": "COSMOS 2251 DEB", "group": "cosmos-2251-debris", "lat": -25.509548520922777, "lon": -139.811397849245, "alt_km": 720.2871347024447, "timestamp": "2025-12-10T09:57:45.090569+00:00", "meta": {"OBJECT_NAME": "COSMOS 2251 DEB", "OBJECT_ID": "1993-036BS", "EPOCH": "2025-12-10T04:23:49.805376", "MEAN_MOTION": 14.69726502, "ECCENTRICITY": 0.0084427, "INCLINATION": 73.9851, "RA_OF_ASC_NODE": 32.7618, "ARG_OF_PERICENTER": 0.4399, "MEAN_ANOMALY": 60.0794, "EPHEMERIS_TYPE": 0, "CLASSIFICATION_TYPE": "U", "NORAD_CAT_ID": 33825, "ELEMENT_SET_NO": 999, "REV_AT_EPOCH": 88842, "BSTAR": 0.0010087, "MEAN_MOTION_DOT": 6.322e-05, "MEAN_MOTION_DDOT": 0}, "tle": {"line1": "1 33825U 93036BS  25344.18321534  .00006322  00000+0  10087-2 0  9997", "line2": "2 33825  73.9851  32.7618 0084427   0.4399  60.0794 14.69726502888421"}}, "geometry": {"type": "Point", "coordinates": [-139.811397849245, -25.509548520922777]}}, {"type": "Feature", "properties": {"norad_id": 33826, "name": "COSMOS 2251 DEB", "group": "cosmos-2251-debris", "lat": -63.2260523570518, "lon": -91.26427282502809, "alt_km": 777.5361974800471, "timestamp": "2025-12-10T09:57:45.090579+00:00", "meta": {"OBJECT_NAME": "COSMOS 2251 DEB", "OBJECT_ID": "1993-036BT", "EPOCH": "2025-12-10T03:59:19.947840", "MEAN_MOTION": 14.51682212, "ECCENTRICITY": 0.0083471, "INCLINATION": 74.0647, "RA_OF_ASC_NODE": 54.7142, "ARG_OF_PERICENTER": 99.9106, "MEAN_ANOMALY": 287.5027, "EPHEMERIS_TYPE": 0, "CLASSIFICATION_TYPE": "U", "NORAD_CAT_ID": 33826, "ELEMENT_SET_NO": 999, "REV_AT_EPOCH": 87732, "BSTAR": 0.001526, "MEAN_MOTION_DOT": 6.385e-05, "MEAN_MOTION_DDOT": 0}, "tle": {"line1": "1 33826U 93036BT  25344.16620310  .00006385  00000+0  15260-2 0  9997", "line2": "2 33826  74.0647  54.7142 0083471  99.9106 287.5027 14.51682212877322"}}, "geometry": {"type": "Point", "coordinates": [-91.26427282502809, -63.2260523570518]}}, {"type": "Feature", "properties": {"norad_id": 33828, "name": "COSMOS 2251 DEB", "group": "cosmos-2251-debris", "lat": -24.644588578166672, "lon": 69.95377413967492, "alt_km": 756.6031788725531, "timestamp": "2025-12-10T09:57:45.090589+00:00", "meta": {"OBJECT_NAME": "COSMOS 2251 DEB", "OBJECT_ID": "1993-036BV", "EPOCH": "2025-12-10T04:46:31.192896", "MEAN_MOTION": 14.44319581, "ECCENTRICITY": 0.0029439, "INCLINATION": 74.0468, "RA_OF_ASC_NODE": 242.8147, "ARG_OF_PERICENTER": 316.1118, "MEAN_ANOMALY": 206.4605, "EPHEMERIS_TYPE": 0, "CLASSIFICATION_TYPE": "U", "NORAD_CAT_ID": 33828, "ELEMENT_SET_NO": 999, "REV_AT_EPOCH": 88276, "BSTAR": 0.00069098, "MEAN_MOTION_DOT": 2.364e-05, "MEAN_MOTION_DDOT": 0}, "tle": {"line1": "1 33828U 93036BV  25344.19897214  .00002364  00000+0  69098-3 0  9993", "line2": "2 33828  74.0468 242.8147 0029439 316.1118 206.4605 14.44319581882765"}}, "geometry": {"type": "Point", "coordinates": [69.95377413967492, -24.644588578166672]}}, {"type": "Feature", "properties": {"norad_id": 33830, "name": "COSMOS 2251 DEB", "group": "cosmos-2251-debris", "lat": 10.66820926120182, "lon": 51.83193576795795, "alt_km": 669.9462846706765, "timestamp": "2025-12-10T09:57:45.090600+00:00", "meta": {"OBJECT_NAME": "COSMOS 2251 DEB", "OBJECT_ID": "1993-036BX", "EPOCH": "2025-12-10T03:13:46.174944", "MEAN_MOTION": 14.76844121, "ECCENTRICITY": 0.0042306, "INCLINATION": 74.0322, "RA_OF_ASC_NODE": 235.4736, "ARG_OF_PERICENTER": 356.0494, "MEAN_ANOMALY": 121.7534, "EPHEMERIS_TYPE": 0, "CLASSIFICATION_TYPE": "U", "NORAD_CAT_ID": 33830, "ELEMENT_SET_NO": 999, "REV_AT_EPOCH": 89433, "BSTAR": 0.0012964, "MEAN_MOTION_DOT": 9.218e-05, "MEAN_MOTION_DDOT": 0}, "tle": {"line1": "1 33830U 93036BX  25344.13456221  .00009218  00000+0  12964-2 0  9993", "line2": "2 33830  74.0322 235.4736 0042306 356.0494 121.7534 14.76844121894331"}}, "geometry": {"type": "Point", "coordinates": [51.83193576795795, 10.66820926120182]}}, {"type": "Feature", "properties": {"norad_id": 33832, "name": "COSMOS 2251 DEB", "group": "cosmos-2251-debris", "lat": -4.83779834105779, "lon": -146.976665137537, "alt_km": 700.2752222980234, "timestamp": "2025-12-10T09:57:45.090610+00:00", "meta": {"OBJECT_NAME": "COSMOS 2251 DEB", "OBJECT_ID": "1993-036BZ", "EPOCH": "2025-12-10T02:30:09.067104", "MEAN_MOTION": 14.60591167, "ECCENTRICITY": 0.0025063, "INCLINATION": 74.0536, "RA_OF_ASC_NODE": 215.0028, "ARG_OF_PERICENTER": 246.5967, "MEAN_ANOMALY": 274.4841, "EPHEMERIS_TYPE": 0, "CLASSIFICATION_TYPE": "U", "NORAD_CAT_ID": 33832, "ELEMENT_SET_NO": 999, "REV_AT_EPOCH": 88386, "BSTAR": 0.0017925, "MEAN_MOTION_DOT": 8.734e-05, "MEAN_MOTION_DDOT": 0}, "tle": {"line1": "1 33832U 93036BZ  25344.10427161  .00008734  00000+0  17925-2 0  9997", "line2": "2 33832  74.0536 215.0028 0025063 246.5967 274.4841 14.60591167883862"}}, "geometry": {"type": "Point", "coordinates": [-146.976665137537, -4.83779834105779]}}, {"type": "Feature", "properties": {"norad_id": 33835, "name": "COSMOS 2251 DEB", "group": "cosmos-2251-debris", "lat": 2.9369327786943598, "lon": -75.2843046046651, "alt_km": 651.157021467614, "timestamp": "2025-12-10T09:57:45.090620+00:00", "meta": {"OBJECT_NAME": "COSMOS 2251 DEB", "OBJECT_ID": "1993-036CC", "EPOCH": "2025-12-09T19:03:59.545152", "MEAN_MOTION": 14.62197622, "ECCENTRICITY": 0.0054975, "INCLINATION": 74.0574, "RA_OF_ASC_NODE": 106.7425, "ARG_OF_PERICENTER": 161.1027, "MEAN_ANOMALY": 349.7462, "EPHEMERIS_TYPE": 0, "CLASSIFICATION_TYPE": "U", "NORAD_CAT_ID": 33835, "ELEMENT_SET_NO": 999, "REV_AT_EPOCH": 88746, "BSTAR": 0.0018514, "MEAN_MOTION_DOT": 9.51e-05, "MEAN_MOTION_DDOT": 0}, "tle": {"line1": "1 33835U 93036CC  25343.79443918  .00009510  00000+0  18514-2 0  9990", "line2": "2 33835  74.0574 106.7425 0054975 161.1027 349.7462 14.62197622887462"}}, "geometry": {"type": "Point", "coordinates": [-75.2843046046651, 2.9369327786943598]}}, {"type": "Feature", "properties": {"norad_id": 33836, "name": "COSMOS 2251 DEB", "group": "cosmos-2251-debris", "lat": 51.89895794898238, "lon": -74.99289161450044, "alt_km": 618.3314949054347, "timestamp": "2025-12-10T09:57:45.090630+00:00", "meta": {"OBJECT_NAME": "COSMOS 2251 DEB", "OBJECT_ID": "1993-036CD", "EPOCH": "2025-12-09T13:26:34.031040", "MEAN_MOTION": 14.79518119, "ECCENTRICITY": 0.0022513, "INCLINATION": 73.9973, "RA_OF_ASC_NODE": 265.2242, "ARG_OF_PERICENTER": 119.5959, "MEAN_ANOMALY": 63.6132, "EPHEMERIS_TYPE": 0, "CLASSIFICATION_TYPE": "U", "NORAD_CAT_ID": 33836, "ELEMENT_SET_NO": 999, "REV_AT_EPOCH": 64041, "BSTAR": 0.0018821, "MEAN_MOTION_DOT": 0.00014133, "MEAN_MOTION_DDOT": 0}, "tle": {"line1": "1 33836U 93036CD  25343.56011610  .00014133  00000+0  18821-2 0  9994", "line2": "2 33836  73.9973 265.2242 0022513 119.5959  63.6132 14.79518119640410"}}, "geometry": {"type": "Point", "coordinates": [-74.99289161450044, 51.89895794898238]}}, {"type": "Feature", "properties": {"norad_id": 33837, "name": "COSMOS 2251 DEB", "group": "cosmos-2251-debris", "lat": -73.04891297452511, "lon": -10.172327160868603, "alt_km": 705.0382997696115, "timestamp": "2025-12-10T09:57:45.090640+00:00", "meta": {"OBJECT_NAME": "COSMOS 2251 DEB", "OBJECT_ID": "1993-036CE", "EPOCH": "2025-12-09T07:52:03.791424", "MEAN_MOTION": 14.50690817, "ECCENTRICITY": 0.0035829, "INCLINATION": 74.0132, "RA_OF_ASC_NODE": 62.0215, "ARG_OF_PERICENTER": 284.3051, "MEAN_ANOMALY": 75.4132, "EPHEMERIS_TYPE": 0, "CLASSIFICATION_TYPE": "U", "NORAD_CAT_ID": 33837, "ELEMENT_SET_NO": 999, "REV_AT_EPOCH": 88746, "BSTAR": 0.00048999, "MEAN_MOTION_DOT": 1.913e-05, "MEAN_MOTION_DDOT": 0}, "tle": {"line1": "1 33837U 93036CE  25343.32782166  .00001913  00000+0  48999-3 0  9992", "line2": "2 33837  74.0132  62.0215 0035829 284.3051  75.4132 14.50690817887465"}}, "geometry": {"type": "Point", "coordinates": [-10.172327160868603, -73.04891297452511]}}, {"type": "Feature", "properties": {"norad_id": 33838, "name": "COSMOS 2251 DEB", "group": "cosmos-2251-debris", "lat": 11.887917877618138, "lon": -29.287472702853517, "alt_km": 738.2370276167358, "timestamp": "2025-12-10T09:57:45.090650+00:00", "meta": {"OBJECT_NAME": "COSMOS 2251 DEB", "OBJECT_ID": "1993-036CF", "EPOCH": "2025-12-09T22:16:54.649056", "MEAN_MOTION": 14.48349226, "ECCENTRICITY": 0.0027471, "INCLINATION": 74.0363, "RA_OF_ASC_NODE": 155.0783, "ARG_OF_PERICENTER": 277.3432, "MEAN_ANOMALY": 233.8467, "EPHEMERIS_TYPE": 0, "CLASSIFICATION_TYPE": "U", "NORAD_CAT_ID": 33838, "ELEMENT_SET_NO": 999, "REV_AT_EPOCH": 88528, "BSTAR": 0.00058394, "MEAN_MOTION_DOT": 2.168e-05, "MEAN_MOTION_DDOT": 0}, "tle": {"line1": "1 33838U 93036CF  25343.92841029  .00002168  00000+0  58394-3 0  9996", "line2": "2 33838  74.0363 155.0783 0027471 277.3432 233.8467 14.48349226885285"}}, "geometry": {"type": "Point", "coordinates": [-29.287472702853517, 11.887917877618138]}}, {"type": "Feature", "properties": {"norad_id": 33839, "name": "COSMOS 2251 DEB", "group": "cosmos-2251-debris", "lat": -38.27948411248918, "lon": -162.10652340936224, "alt_km": 625.1455871253429, "timestamp": "2025-12-10T09:57:45.090661+00:00", "meta": {"OBJECT_NAME": "COSMOS 2251 DEB", "OBJECT_ID": "1993-036CG", "EPOCH": "2025-12-10T02:39:10.870272", "MEAN_MOTION": 14.64409066, "ECCENTRICITY": 0.0085043, "INCLINATION": 74.039, "RA_OF_ASC_NODE": 211.5319, "ARG_OF_PERICENTER": 324.2198, "MEAN_ANOMALY": 190.8641, "EPHEMERIS_TYPE": 0, "CLASSIFICATION_TYPE": "U", "NORAD_CAT_ID": 33839, "ELEMENT_SET_NO": 999, "REV_AT_EPOCH": 89541, "BSTAR": 0.00034372, "MEAN_MOTION_DOT": 1.883e-05, "MEAN_MOTION_DDOT": 0}, "tle": {"line1": "1 33839U 93036CG  25344.11054248  .00001883  00000+0  34372-3 0  9991", "line2": "2 33839  74.0390 211.5319 0085043 324.2198 190.8641 14.64409066895418"}}, "geometry": {"type": "Point", "coordinates": [-162.10652340936224, -38.27948411248918]}}]}